[{"OBJECT_NAME":"DAMPE","OBJECT_ID":"2015-078A","EPOCH":"2026-03-09T23:55:00.527232","MEAN_MOTION":15.30502084,"ECCENTRICITY":0.00138005,"INCLINATION":97.4588,"RA_OF_ASC_NODE":73.9866,"ARG_OF_PERICENTER":70.6942,"MEAN_ANOMALY":289.579,"EPHEMERIS_TYPE":0,"CLASSIFICATION_TYPE":"U","NORAD_CAT_ID":41173,"ELEMENT_SET_NO":999,"REV_AT_EPOCH":56937,"BSTAR":9.1158173e-5,"MEAN_MOTION_DOT":2.617e-5,"MEAN_MOTION_DDOT":0},{"OBJECT_NAME":"STARLINK-30496","OBJECT_ID":"2023-147G","EPOCH":"2026-03-09T22:00:01.999584","MEAN_MOTION":15.26720352,"ECCENTRICITY":0.00015341,"INCLINATION":43.0024,"RA_OF_ASC_NODE":323.8675,"ARG_OF_PERICENTER":268.8891,"MEAN_ANOMALY":82.3061,"EPHEMERIS_TYPE":0,"CLASSIFICATION_TYPE":"U","NORAD_CAT_ID":57919,"ELEMENT_SET_NO":999,"REV_AT_EPOCH":578,"BSTAR":-0.0017400663,"MEAN_MOTION_DOT":-0.00046614,"MEAN_MOTION_DDOT":0}]
